DELTA 2 R/B(1)          
1 20453U 90008B   26005.31717389  .00058857  00000+0  88149-3 0  9998
2 20453  35.6036 228.0345 0104779  32.6160 328.0992 15.47647498916283
COSMOS 2058             
1 20465U 90010A   26005.33973514  .00005486  00000+0  32892-3 0  9994
2 20465  82.4718 109.8186 0010036 188.6441 171.4617 15.10741487932676
SL-14 R/B               
1 20466U 90010B   26005.35318254  .00000727  00000+0  85205-4 0  9991
2 20466  82.5035 326.8697 0020664 144.8343 215.4240 14.83499690919098
SL-14 R/B               
1 20511U 90018B   26005.24247013  .00000736  00000+0  89604-4 0  9999
2 20511  82.5222 282.3998 0015155 304.2644  55.7134 14.82076924913183
HST                     
1 20580U 90037B   26005.36698117  .00008527  00000+0  29152-3 0  9991
2 20580  28.4668 111.6230 0002484 126.2079 233.8746 15.28406732763614
SL-16 R/B               
1 20625U 90046B   26005.49858483  .00000367  00000+0  21421-3 0  9994
2 20625  70.9996  70.6265 0012852  33.0089 327.1833 14.15001958839454
COSMOS 2084             
1 20663U 90055A   26005.48608427  .00003958  00000+0  28789-3 0  9999
2 20663  62.7888 191.0713 0027733 178.0983 182.0228 15.05192421926806
SL-6 R/B(2)             
1 20666U 90055D   26005.51693800  .00003093  00000+0  24134-3 0  9995
2 20666  62.7841 108.6173 0015685 324.1308  35.8736 15.03221854928699
SL-8 R/B                
1 20775U 90078B   26005.36058910  .00015837  00000+0  48439-3 0  9994
2 20775  82.9069 308.1548 0369119 226.3280 130.6803 14.86795537799885
SL-8 R/B                
1 21088U 91006B   26005.38037100  .00000029  00000+0  13623-4 0  9999
2 21088  82.9410 217.1277 0021774 210.1010 323.1197 13.77492917755359
