CCSDS_OMM_VERS = 2.0
CREATION_DATE  = 
ORIGINATOR     = 

OBJECT_NAME    = DELTA 2 R/B(1)
OBJECT_ID      = 1990-008B
CENTER_NAME    = EARTH
REF_FRAME      = TEME
TIME_SYSTEM    = UTC
MEAN_ELEMENT_THEORY = SGP/SGP4

EPOCH          = 2026-01-05T07:36:43.824096
MEAN_MOTION    = 15.47647498
ECCENTRICITY   = .0104779
INCLINATION    = 35.6036
RA_OF_ASC_NODE = 228.0345
ARG_OF_PERICENTER = 32.6160
MEAN_ANOMALY   = 328.0992

EPHEMERIS_TYPE = 0
CLASSIFICATION_TYPE = U
NORAD_CAT_ID   = 20453
ELEMENT_SET_NO = 999
REV_AT_EPOCH   = 91628
BSTAR          = .88149E-3
MEAN_MOTION_DOT = .58857E-3
MEAN_MOTION_DDOT = 0

CCSDS_OMM_VERS = 2.0
CREATION_DATE  = 
ORIGINATOR     = 

OBJECT_NAME    = COSMOS 2058
OBJECT_ID      = 1990-010A
CENTER_NAME    = EARTH
REF_FRAME      = TEME
TIME_SYSTEM    = UTC
MEAN_ELEMENT_THEORY = SGP/SGP4

EPOCH          = 2026-01-05T08:09:13.116096
MEAN_MOTION    = 15.10741487
ECCENTRICITY   = .0010036
INCLINATION    = 82.4718
RA_OF_ASC_NODE = 109.8186
ARG_OF_PERICENTER = 188.6441
MEAN_ANOMALY   = 171.4617

EPHEMERIS_TYPE = 0
CLASSIFICATION_TYPE = U
NORAD_CAT_ID   = 20465
ELEMENT_SET_NO = 999
REV_AT_EPOCH   = 93267
BSTAR          = .32892E-3
MEAN_MOTION_DOT = .5486E-4
MEAN_MOTION_DDOT = 0

CCSDS_OMM_VERS = 2.0
CREATION_DATE  = 
ORIGINATOR     = 

OBJECT_NAME    = SL-14 R/B
OBJECT_ID      = 1990-010B
CENTER_NAME    = EARTH
REF_FRAME      = TEME
TIME_SYSTEM    = UTC
MEAN_ELEMENT_THEORY = SGP/SGP4

EPOCH          = 2026-01-05T08:28:34.971456
MEAN_MOTION    = 14.83499690
ECCENTRICITY   = .0020664
INCLINATION    = 82.5035
RA_OF_ASC_NODE = 326.8697
ARG_OF_PERICENTER = 144.8343
MEAN_ANOMALY   = 215.4240

EPHEMERIS_TYPE = 0
CLASSIFICATION_TYPE = U
NORAD_CAT_ID   = 20466
ELEMENT_SET_NO = 999
REV_AT_EPOCH   = 91909
BSTAR          = .85205E-4
MEAN_MOTION_DOT = .727E-5
MEAN_MOTION_DDOT = 0

CCSDS_OMM_VERS = 2.0
CREATION_DATE  = 
ORIGINATOR     = 

OBJECT_NAME    = SL-14 R/B
OBJECT_ID      = 1990-018B
CENTER_NAME    = EARTH
REF_FRAME      = TEME
TIME_SYSTEM    = UTC
MEAN_ELEMENT_THEORY = SGP/SGP4

EPOCH          = 2026-01-05T05:49:09.419232
MEAN_MOTION    = 14.82076924
ECCENTRICITY   = .0015155
INCLINATION    = 82.5222
RA_OF_ASC_NODE = 282.3998
ARG_OF_PERICENTER = 304.2644
MEAN_ANOMALY   = 55.7134

EPHEMERIS_TYPE = 0
CLASSIFICATION_TYPE = U
NORAD_CAT_ID   = 20511
ELEMENT_SET_NO = 999
REV_AT_EPOCH   = 91318
BSTAR          = .89604E-4
MEAN_MOTION_DOT = .736E-5
MEAN_MOTION_DDOT = 0

CCSDS_OMM_VERS = 2.0
CREATION_DATE  = 
ORIGINATOR     = 

OBJECT_NAME    = HST
OBJECT_ID      = 1990-037B
CENTER_NAME    = EARTH
REF_FRAME      = TEME
TIME_SYSTEM    = UTC
MEAN_ELEMENT_THEORY = SGP/SGP4

EPOCH          = 2026-01-05T08:48:27.173088
MEAN_MOTION    = 15.28406732
ECCENTRICITY   = .0002484
INCLINATION    = 28.4668
RA_OF_ASC_NODE = 111.6230
ARG_OF_PERICENTER = 126.2079
MEAN_ANOMALY   = 233.8746

EPHEMERIS_TYPE = 0
CLASSIFICATION_TYPE = U
NORAD_CAT_ID   = 20580
ELEMENT_SET_NO = 999
REV_AT_EPOCH   = 76361
BSTAR          = .29152E-3
MEAN_MOTION_DOT = .8527E-4
MEAN_MOTION_DDOT = 0

CCSDS_OMM_VERS = 2.0
CREATION_DATE  = 
ORIGINATOR     = 

OBJECT_NAME    = SL-16 R/B
OBJECT_ID      = 1990-046B
CENTER_NAME    = EARTH
REF_FRAME      = TEME
TIME_SYSTEM    = UTC
MEAN_ELEMENT_THEORY = SGP/SGP4

EPOCH          = 2026-01-05T11:57:57.729312
MEAN_MOTION    = 14.15001958
ECCENTRICITY   = .0012852
INCLINATION    = 70.9996
RA_OF_ASC_NODE = 70.6265
ARG_OF_PERICENTER = 33.0089
MEAN_ANOMALY   = 327.1833

EPHEMERIS_TYPE = 0
CLASSIFICATION_TYPE = U
NORAD_CAT_ID   = 20625
ELEMENT_SET_NO = 999
REV_AT_EPOCH   = 83945
BSTAR          = .21421E-3
MEAN_MOTION_DOT = .367E-5
MEAN_MOTION_DDOT = 0

CCSDS_OMM_VERS = 2.0
CREATION_DATE  = 
ORIGINATOR     = 

OBJECT_NAME    = COSMOS 2084
OBJECT_ID      = 1990-055A
CENTER_NAME    = EARTH
REF_FRAME      = TEME
TIME_SYSTEM    = UTC
MEAN_ELEMENT_THEORY = SGP/SGP4

EPOCH          = 2026-01-05T11:39:57.680928
MEAN_MOTION    = 15.05192421
ECCENTRICITY   = .0027733
INCLINATION    = 62.7888
RA_OF_ASC_NODE = 191.0713
ARG_OF_PERICENTER = 178.0983
MEAN_ANOMALY   = 182.0228

EPHEMERIS_TYPE = 0
CLASSIFICATION_TYPE = U
NORAD_CAT_ID   = 20663
ELEMENT_SET_NO = 999
REV_AT_EPOCH   = 92680
BSTAR          = .28789E-3
MEAN_MOTION_DOT = .3958E-4
MEAN_MOTION_DDOT = 0

CCSDS_OMM_VERS = 2.0
CREATION_DATE  = 
ORIGINATOR     = 

OBJECT_NAME    = SL-6 R/B(2)
OBJECT_ID      = 1990-055D
CENTER_NAME    = EARTH
REF_FRAME      = TEME
TIME_SYSTEM    = UTC
MEAN_ELEMENT_THEORY = SGP/SGP4

EPOCH          = 2026-01-05T12:24:23.443200
MEAN_MOTION    = 15.03221854
ECCENTRICITY   = .0015685
INCLINATION    = 62.7841
RA_OF_ASC_NODE = 108.6173
ARG_OF_PERICENTER = 324.1308
MEAN_ANOMALY   = 35.8736

EPHEMERIS_TYPE = 0
CLASSIFICATION_TYPE = U
NORAD_CAT_ID   = 20666
ELEMENT_SET_NO = 999
REV_AT_EPOCH   = 92869
BSTAR          = .24134E-3
MEAN_MOTION_DOT = .3093E-4
MEAN_MOTION_DDOT = 0

CCSDS_OMM_VERS = 2.0
CREATION_DATE  = 
ORIGINATOR     = 

OBJECT_NAME    = SL-8 R/B
OBJECT_ID      = 1990-078B
CENTER_NAME    = EARTH
REF_FRAME      = TEME
TIME_SYSTEM    = UTC
MEAN_ELEMENT_THEORY = SGP/SGP4

EPOCH          = 2026-01-05T08:39:14.898240
MEAN_MOTION    = 14.86795537
ECCENTRICITY   = .0369119
INCLINATION    = 82.9069
RA_OF_ASC_NODE = 308.1548
ARG_OF_PERICENTER = 226.3280
MEAN_ANOMALY   = 130.6803

EPHEMERIS_TYPE = 0
CLASSIFICATION_TYPE = U
NORAD_CAT_ID   = 20775
ELEMENT_SET_NO = 999
REV_AT_EPOCH   = 79988
BSTAR          = .48439E-3
MEAN_MOTION_DOT = .15837E-3
MEAN_MOTION_DDOT = 0

CCSDS_OMM_VERS = 2.0
CREATION_DATE  = 
ORIGINATOR     = 

OBJECT_NAME    = SL-8 R/B
OBJECT_ID      = 1991-006B
CENTER_NAME    = EARTH
REF_FRAME      = TEME
TIME_SYSTEM    = UTC
MEAN_ELEMENT_THEORY = SGP/SGP4

EPOCH          = 2026-01-05T09:07:44.054400
MEAN_MOTION    = 13.77492917
ECCENTRICITY   = .0021774
INCLINATION    = 82.9410
RA_OF_ASC_NODE = 217.1277
ARG_OF_PERICENTER = 210.1010
MEAN_ANOMALY   = 323.1197

EPHEMERIS_TYPE = 0
CLASSIFICATION_TYPE = U
NORAD_CAT_ID   = 21088
ELEMENT_SET_NO = 999
REV_AT_EPOCH   = 75535
BSTAR          = .13623E-4
MEAN_MOTION_DOT = .29E-6
MEAN_MOTION_DDOT = 0

